{"type": "FeatureCollection", "features": [ {"type": "Feature", "properties": {"norad_id": 35210, "name": "FENGYUN 1C DEB", "group": "fengyun-1c-debris", "lat": 2.8753796013878854, "lon": -12.553037368460489, "alt_km": 797.999270595782, "timestamp": "2025-12-10T05:46:14.110903+00:00", "meta": {"OBJECT_NAME": "FENGYUN 1C DEB", "OBJECT_ID": "1999-025DPS", "EPOCH": "2025-12-09T12:02:12.880608", "MEAN_MOTION": 14.33563165, "ECCENTRICITY": 0.00493653, "INCLINATION": 99.0976, "RA_OF_ASC_NODE": 347.1318, "ARG_OF_PERICENTER": 248.6103, "MEAN_ANOMALY": 262.6924, "EPHEMERIS_TYPE": 0, "CLASSIFICATION_TYPE": "U", "NORAD_CAT_ID": 35210, "ELEMENT_SET_NO": 999, "REV_AT_EPOCH": 90076, "BSTAR": 0.0035139126, "MEAN_MOTION_DOT": 9.824e-05, "MEAN_MOTION_DDOT": 0}, "tle": {"line1": "1 35210U 99025DPS 25343.50153797  .00009824  00000+0  35139-2 0  9995", "line2": "2 35210  99.0976 347.1318 0049365 248.6103 262.6924 14.33563165900761"}}, "geometry": {"type": "Point", "coordinates": [-12.553037368460489, 2.8753796013878854]}}, {"type": "Feature", "properties": {"norad_id": 35217, "name": "FENGYUN 1C DEB", "group": "fengyun-1c-debris", "lat": -11.794060862741262, "lon": 76.36192726378009, "alt_km": 1119.455325592372, "timestamp": "2025-12-10T05:46:14.110914+00:00", "meta": {"OBJECT_NAME": "FENGYUN 1C DEB", "OBJECT_ID": "1999-025DPZ", "EPOCH": "2025-12-05T23:58:33.093696", "MEAN_MOTION": 13.57450047, "ECCENTRICITY": 0.03033796, "INCLINATION": 101.8756, "RA_OF_ASC_NODE": 253.7635, "ARG_OF_PERICENTER": 311.644, "MEAN_ANOMALY": 45.907, "EPHEMERIS_TYPE": 0, "CLASSIFICATION_TYPE": "U", "NORAD_CAT_ID": 35217, "ELEMENT_SET_NO": 999, "REV_AT_EPOCH": 61128, "BSTAR": 0.0049764515, "MEAN_MOTION_DOT": 4.747e-05, "MEAN_MOTION_DDOT": 0}, "tle": {"line1": "1 35217U 99025DPZ 25339.99899414  .00004747  00000+0  49765-2 0  9992", "line2": "2 35217 101.8756 253.7635 0303379 311.6440  45.9070 13.57450047611282"}}, "geometry": {"type": "Point", "coordinates": [76.36192726378009, -11.794060862741262]}}, {"type": "Feature", "properties": {"norad_id": 35220, "name": "FENGYUN 1C DEB", "group": "fengyun-1c-debris", "lat": 29.88429064048072, "lon": -120.54499358911659, "alt_km": 845.4338111747793, "timestamp": "2025-12-10T05:46:14.110927+00:00", "meta": {"OBJECT_NAME": "FENGYUN 1C DEB", "OBJECT_ID": "1999-025DQC", "EPOCH": "2025-12-09T03:44:46.125024", "MEAN_MOTION": 14.22518775, "ECCENTRICITY": 0.00434323, "INCLINATION": 99.0273, "RA_OF_ASC_NODE": 53.1031, "ARG_OF_PERICENTER": 317.8282, "MEAN_ANOMALY": 41.9557, "EPHEMERIS_TYPE": 0, "CLASSIFICATION_TYPE": "U", "NORAD_CAT_ID": 35220, "ELEMENT_SET_NO": 999, "REV_AT_EPOCH": 63132, "BSTAR": 0.0018808139, "MEAN_MOTION_DOT": 4.193e-05, "MEAN_MOTION_DDOT": 0}, "tle": {"line1": "1 35220U 99025DQC 25343.15608941  .00004193  00000+0  18808-2 0  9991", "line2": "2 35220  99.0273  53.1031 0043432 317.8282  41.9557 14.22518775631322"}}, "geometry": {"type": "Point", "coordinates": [-120.54499358911659, 29.88429064048072]}}, {"type": "Feature", "properties": {"norad_id": 35223, "name": "FENGYUN 1C DEB", "group": "fengyun-1c-debris", "lat": -37.93705250280085, "lon": 139.3239331150261, "alt_km": 646.5351616725247, "timestamp": "2025-12-10T05:46:14.110936+00:00", "meta": {"OBJECT_NAME": "FENGYUN 1C DEB", "OBJECT_ID": "1999-025DQF", "EPOCH": "2025-12-07T21:56:42.228096", "MEAN_MOTION": 14.88831664, "ECCENTRICITY": 0.01290174, "INCLINATION": 98.972, "RA_OF_ASC_NODE": 323.7649, "ARG_OF_PERICENTER": 341.9743, "MEAN_ANOMALY": 17.6916, "EPHEMERIS_TYPE": 0, "CLASSIFICATION_TYPE": "U", "NORAD_CAT_ID": 35223, "ELEMENT_SET_NO": 999, "REV_AT_EPOCH": 93810, "BSTAR": 0.0012358493, "MEAN_MOTION_DOT": 0.0001347, "MEAN_MOTION_DDOT": 0}, "tle": {"line1": "1 35223U 99025DQF 25341.91437764  .00013470  00000+0  12358-2 0  9991", "line2": "2 35223  98.9720 323.7649 0129017 341.9743  17.6916 14.88831664938107"}}, "geometry": {"type": "Point", "coordinates": [139.3239331150261, -37.93705250280085]}}, {"type": "Feature", "properties": {"norad_id": 35229, "name": "FENGYUN 1C DEB", "group": "fengyun-1c-debris", "lat": -46.576102221602554, "lon": -125.86493936314598, "alt_km": 665.1143652507644, "timestamp": "2025-12-10T05:46:14.110946+00:00", "meta": {"OBJECT_NAME": "FENGYUN 1C DEB", "OBJECT_ID": "1999-025DQM", "EPOCH": "2025-12-08T23:08:00.019104", "MEAN_MOTION": 14.60344709, "ECCENTRICITY": 0.0047489, "INCLINATION": 98.4583, "RA_OF_ASC_NODE": 61.8783, "ARG_OF_PERICENTER": 226.2462, "MEAN_ANOMALY": 133.4802, "EPHEMERIS_TYPE": 0, "CLASSIFICATION_TYPE": "U", "NORAD_CAT_ID": 35229, "ELEMENT_SET_NO": 999, "REV_AT_EPOCH": 64451, "BSTAR": 0.006925, "MEAN_MOTION_DOT": 0.00034127, "MEAN_MOTION_DDOT": 0}, "tle": {"line1": "1 35229U 99025DQM 25342.96388911  .00034127  00000+0  69250-2 0  9997", "line2": "2 35229  98.4583  61.8783 0047489 226.2462 133.4802 14.60344709644518"}}, "geometry": {"type": "Point", "coordinates": [-125.86493936314598, -46.576102221602554]}}, {"type": "Feature", "properties": {"norad_id": 35231, "name": "FENGYUN 1C DEB", "group": "fengyun-1c-debris", "lat": -67.31878694824333, "lon": -174.0847998212746, "alt_km": 876.3916113561781, "timestamp": "2025-12-10T05:46:14.110956+00:00", "meta": {"OBJECT_NAME": "FENGYUN 1C DEB", "OBJECT_ID": "1999-025DQP", "EPOCH": "2025-12-09T20:06:43.034112", "MEAN_MOTION": 14.14528018, "ECCENTRICITY": 0.003803, "INCLINATION": 98.721, "RA_OF_ASC_NODE": 27.07, "ARG_OF_PERICENTER": 93.1813, "MEAN_ANOMALY": 267.3712, "EPHEMERIS_TYPE": 0, "CLASSIFICATION_TYPE": "U", "NORAD_CAT_ID": 35231, "ELEMENT_SET_NO": 999, "REV_AT_EPOCH": 91461, "BSTAR": 4.0109e-05, "MEAN_MOTION_DOT": 3.5e-07, "MEAN_MOTION_DDOT": 0}, "tle": {"line1": "1 35231U 99025DQP 25343.83799808  .00000035  00000+0  40109-4 0  9993", "line2": "2 35231  98.7210  27.0700 0038030  93.1813 267.3712 14.14528018914611"}}, "geometry": {"type": "Point", "coordinates": [-174.0847998212746, -67.31878694824333]}}, {"type": "Feature", "properties": {"norad_id": 35233, "name": "FENGYUN 1C DEB", "group": "fengyun-1c-debris", "lat": 75.95350796914629, "lon": 45.197327384498145, "alt_km": 774.1768405685934, "timestamp": "2025-12-10T05:46:14.110965+00:00", "meta": {"OBJECT_NAME": "FENGYUN 1C DEB", "OBJECT_ID": "1999-025DQR", "EPOCH": "2025-12-09T06:21:15.657120", "MEAN_MOTION": 14.41798974, "ECCENTRICITY": 0.0041081, "INCLINATION": 98.771, "RA_OF_ASC_NODE": 82.2996, "ARG_OF_PERICENTER": 271.4265, "MEAN_ANOMALY": 146.1563, "EPHEMERIS_TYPE": 0, "CLASSIFICATION_TYPE": "U", "NORAD_CAT_ID": 35233, "ELEMENT_SET_NO": 999, "REV_AT_EPOCH": 91126, "BSTAR": 0.0026647, "MEAN_MOTION_DOT": 8.757e-05, "MEAN_MOTION_DDOT": 0}, "tle": {"line1": "1 35233U 99025DQR 25343.26476455  .00008757  00000+0  26647-2 0  9990", "line2": "2 35233  98.7710  82.2996 0041081 271.4265 146.1563 14.41798974911266"}}, "geometry": {"type": "Point", "coordinates": [45.197327384498145, 75.95350796914629]}}, {"type": "Feature", "properties": {"norad_id": 35234, "name": "FENGYUN 1C DEB", "group": "fengyun-1c-debris", "lat": -8.87180869426972, "lon": 13.491768289723078, "alt_km": 667.4065499999297, "timestamp": "2025-12-10T05:46:14.110975+00:00", "meta": {"OBJECT_NAME": "FENGYUN 1C DEB", "OBJECT_ID": "1999-025DQS", "EPOCH": "2025-12-09T08:30:33.361920", "MEAN_MOTION": 14.65521063, "ECCENTRICITY": 0.00996776, "INCLINATION": 98.0687, "RA_OF_ASC_NODE": 11.3531, "ARG_OF_PERICENTER": 273.2554, "MEAN_ANOMALY": 85.725, "EPHEMERIS_TYPE": 0, "CLASSIFICATION_TYPE": "U", "NORAD_CAT_ID": 35234, "ELEMENT_SET_NO": 999, "REV_AT_EPOCH": 94306, "BSTAR": 0.00084730707, "MEAN_MOTION_DOT": 4.891e-05, "MEAN_MOTION_DDOT": 0}, "tle": {"line1": "1 35234U 99025DQS 25343.35455280  .00004891  00000+0  84731-3 0  9998", "line2": "2 35234  98.0687  11.3531 0099677 273.2554  85.7250 14.65521063943069"}}, "geometry": {"type": "Point", "coordinates": [13.491768289723078, -8.87180869426972]}}, {"type": "Feature", "properties": {"norad_id": 35239, "name": "FENGYUN 1C DEB", "group": "fengyun-1c-debris", "lat": 15.878028732566829, "lon": -32.326058207185866, "alt_km": 1143.8082177392134, "timestamp": "2025-12-10T05:46:14.110985+00:00", "meta": {"OBJECT_NAME": "FENGYUN 1C DEB", "OBJECT_ID": "1999-025DQX", "EPOCH": "2025-12-09T16:42:28.363104", "MEAN_MOTION": 13.69206975, "ECCENTRICITY": 0.0229669, "INCLINATION": 99.266, "RA_OF_ASC_NODE": 144.4888, "ARG_OF_PERICENTER": 18.3208, "MEAN_ANOMALY": 342.6043, "EPHEMERIS_TYPE": 0, "CLASSIFICATION_TYPE": "U", "NORAD_CAT_ID": 35239, "ELEMENT_SET_NO": 999, "REV_AT_EPOCH": 58089, "BSTAR": 0.0012904, "MEAN_MOTION_DOT": 1.303e-05, "MEAN_MOTION_DDOT": 0}, "tle": {"line1": "1 35239U 99025DQX 25343.69616161  .00001303  00000+0  12904-2 0  9994", "line2": "2 35239  99.2660 144.4888 0229669  18.3208 342.6043 13.69206975580899"}}, "geometry": {"type": "Point", "coordinates": [-32.326058207185866, 15.878028732566829]}}, {"type": "Feature", "properties": {"norad_id": 35240, "name": "FENGYUN 1C DEB", "group": "fengyun-1c-debris", "lat": -46.82560359112044, "lon": 116.3985994342857, "alt_km": 808.9001205409331, "timestamp": "2025-12-10T05:46:14.110995+00:00", "meta": {"OBJECT_NAME": "FENGYUN 1C DEB", "OBJECT_ID": "1999-025DQY", "EPOCH": "2025-12-09T20:16:18.281856", "MEAN_MOTION": 14.23262042, "ECCENTRICITY": 0.0045988, "INCLINATION": 99.3526, "RA_OF_ASC_NODE": 306.0952, "ARG_OF_PERICENTER": 160.0016, "MEAN_ANOMALY": 200.2975, "EPHEMERIS_TYPE": 0, "CLASSIFICATION_TYPE": "U", "NORAD_CAT_ID": 35240, "ELEMENT_SET_NO": 999, "REV_AT_EPOCH": 93123, "BSTAR": 0.0029296, "MEAN_MOTION_DOT": 6.661e-05, "MEAN_MOTION_DDOT": 0}, "tle": {"line1": "1 35240U 99025DQY 25343.84465604  .00006661  00000+0  29296-2 0  9991", "line2": "2 35240  99.3526 306.0952 0045988 160.0016 200.2975 14.23262042931232"}}, "geometry": {"type": "Point", "coordinates": [116.3985994342857, -46.82560359112044]}}]}